# last update : 29.09.2023 19:51:59 UTC
JASON-3                 
1 41240U 16002A   23272.08796283 -.00000077  00000+0 -69360-4 0  9992
2 41240  66.0437  35.7132 0007578 266.7254  93.2894 12.80928347360074

SARAL                   
1 39086U 13009A   23272.54085128  .00000239  00000+0  10479-3 0  9995
2 39086  98.5495  96.3312 0001854  12.4439 347.6790 14.32266003553627

SENTINEL-3A             
1 41335U 16011A   23272.50984339  .00000229  00000+0  11263-3 0  9990
2 41335  98.6280 338.0481 0001268 103.2438 256.8883 14.26730796396650

SENTINEL-3B             
1 43437U 18039A   23271.78148568  .00000247  00000+0  12019-3 0  9992
2 43437  98.6349 337.4028 0000379  99.8959 260.2264 14.26723412282610

HAIYANG-2B              
1 43655U 18081A   23272.48488663  .00000008  00000+0  50871-4 0  9996
2 43655  99.3422 279.7097 0001597  53.0978 307.0320 13.79301968248218

CFOSAT                  
1 43662U 18083A   23272.50233325  .00005759  00000+0  30087-3 0  9996
2 43662  97.3930 289.0613 0001486  87.4009 272.7394 15.16274447272242

CRYOSAT 2               
1 36508U 10013A   23272.18463383  .00000378  00000+0  93129-4 0  9994
2 36508  92.0299  37.5021 0005956  92.8322 267.3567 14.51903857714184

SENTINEL-6              
1 46984U 20086A   23272.52111844 -.00000070  00000+0 -40178-4 0  9991
2 46984  66.0436  34.7506 0007848 268.0554  91.9563 12.80929848133449

